NORAD_CAT_ID,OBJECT_NAME,OBJECT_TYPE,EPOCH,MEAN_MOTION,ECCENTRICITY,INCLINATION,RA_OF_ASC_NODE,ARG_OF_PERICENTER,MEAN_ANOMALY,BSTAR,MEAN_MOTION_DOT,MEAN_MOTION_DDOT,TLE_LINE0,TLE_LINE1,TLE_LINE2,SEMIMAJOR_AXIS,PERIOD,APOGEE,PERIGEE,DECAYED
53708.0,STARLINK-4694,PAYLOAD,2022-10-05 08:00:01,15.73165402,0.0001248,53.216,123.4582,132.5795,282.848,-0.0020147,-0.00273949,0.0,0 STARLINK-4694,1 53708U 22107J   22278.33334491 -.00273949  00000-0 -20147-2 0  9998,2 53708  53.2160 123.4582 0001248 132.5795 282.8480 15.73165402  4880,6727.994000000002,91.535,350.6980000000001,349.019,0.0
53708.0,STARLINK-4694,PAYLOAD,2022-10-05 14:00:01,15.73140969,0.0001261,53.2143,122.2206,136.627,255.4269,0.0003363,0.00046721,0.0,0 STARLINK-4694,1 53708U 22107J   22278.58335648  .00046721  00000-0  33630-3 0  9996,2 53708  53.2143 122.2206 0001261 136.6270 255.4269 15.73140969  4926,6728.063,91.537,350.777,349.08,0.0
53708.0,STARLINK-4694,PAYLOAD,2022-10-05 22:00:00,15.7315795,9.92e-05,53.2142,120.5733,125.9779,354.88800000000015,0.00068323,0.00096197,0.0,0 STARLINK-4694,1 53708U 22107J   22278.91667824  .00096197  00000-0  68323-3 0  9996,2 53708  53.2142 120.5733 0000992 125.9779 354.8880 15.73157950  1306,6728.015,91.536,350.547,349.213,0.0
53708.0,STARLINK-4694,PAYLOAD,2022-10-06 14:00:01,15.73184515,0.0001298,53.2138,117.2723,129.0272,169.7094,0.00045792,0.00064095,0.0,0 STARLINK-4694,1 53708U 22107J   22279.58334491  .00064095  00000-0  45792-3 0  9998,2 53708  53.2138 117.2723 0001298 129.0272 169.7094 15.73184515  1303,6727.939,91.534,350.67800000000005,348.931,0.0
53708.0,STARLINK-4694,PAYLOAD,2022-10-06 22:42:55,15.73177264,0.0001001,53.2137,115.4774,118.9101,77.6033,0.00067902,0.00095674,0.0,0 STARLINK-4694,1 53708U 22107J   22279.94646991  .00095674  00000-0  67902-3 0  9993,2 53708  53.2137 115.4774 0001001 118.9101  77.6033 15.73177264  1301,6727.96,91.535,350.49800000000016,349.152,0.0
53708.0,STARLINK-4694,PAYLOAD,2022-10-07 00:00:00,15.73174216,9.82e-05,53.2135,115.2125,120.4846,19.4413,0.00080701,0.00114061,0.0,0 STARLINK-4694,1 53708U 22107J   22280.00001157  .00114061  00000-0  80701-3 0  9995,2 53708  53.2135 115.2125 0000982 120.4846  19.4413 15.73174216  5144,6727.969,91.535,350.494,349.173,0.0
53708.0,STARLINK-4694,PAYLOAD,2022-10-07 14:00:01,15.7321774,0.0001318,53.2139,112.3232,122.3983,83.1941,-4.7051e-05,-7.223e-05,0.0,0 STARLINK-4694,1 53708U 22107J   22280.58334491 -.00007223  00000-0 -47051-4 0  9993,2 53708  53.2139 112.3232 0001318 122.3983  83.1941 15.73217740  1300,6727.845,91.532,350.596,348.8230000000001,0.0
53708.0,STARLINK-4694,PAYLOAD,2022-10-07 22:00:00,15.73181539,0.0001210999999999,53.2137,110.6755,106.467,188.0735,2.2888e-06,-2.99e-06,0.0,0 STARLINK-4694,1 53708U 22107J   22280.91667824 -.00000299  00000-0  22888-5 0  9996,2 53708  53.2137 110.6755 0001211 106.4670 188.0735 15.73181539  1309,6727.948,91.534,350.62800000000016,348.99800000000016,0.0
53708.0,STARLINK-4694,PAYLOAD,2022-10-08 06:00:00,15.73142726,0.0001200999999999,53.216,109.025,111.5042,272.0165,-0.00080759,-0.00112184,0.0,0 STARLINK-4694,1 53708U 22107J   22281.25001157 -.00112184  00000-0 -80759-3 0  9992,2 53708  53.2160 109.0250 0001201 111.5042 272.0165 15.73142726  5340,6728.058000000001,91.537,350.732,349.115,0.0
53708.0,STARLINK-4694,PAYLOAD,2022-10-08 14:00:01,15.73170017,0.0001385,53.2133,107.3743,113.6401,358.7542,0.00055821,0.00078354,0.0,0 STARLINK-4694,1 53708U 22107J   22281.58334491  .00078354  00000-0  55821-3 0  9998,2 53708  53.2133 107.3743 0001385 113.6401 358.7542 15.73170017  5393,6727.981,91.535,350.777,348.914,0.0
53708.0,STARLINK-4694,PAYLOAD,2022-10-08 22:00:00,15.73215899,0.0001104,53.2132,105.7265,101.6495,99.6807,0.00020649,0.00028477,0.0,0 STARLINK-4694,1 53708U 22107J   22281.91667824  .00028477  00000-0  20649-3 0  9995,2 53708  53.2132 105.7265 0001104 101.6495  99.6807 15.73215899  1302,6727.85,91.532,350.458,348.972,0.0
53708.0,STARLINK-4694,PAYLOAD,2022-10-09 06:00:00,15.73250257,0.0001125,53.2132,104.0749,108.833,181.4583,-0.00031712,-0.00044983,0.0,0 STARLINK-4694,1 53708U 22107J   22282.25001157 -.00044983  00000-0 -31712-3 0  9999,2 53708  53.2132 104.0749 0001125 108.8330 181.4583 15.73250257  5493,6727.752,91.53,350.374,348.86,0.0
53708.0,STARLINK-4694,PAYLOAD,2022-10-09 14:00:01,15.73280262,0.0001288,53.2134,102.425,105.7376,273.5244,-0.000606,-0.00085104,0.0,0 STARLINK-4694,1 53708U 22107J   22282.58334491 -.00085104  00000-0 -60600-3 0  9993,2 53708  53.2134 102.4250 0001288 105.7376 273.5244 15.73280262  5553,6727.666,91.529,350.398,348.665,0.0
53708.0,STARLINK-4694,PAYLOAD,2022-10-09 22:00:00,15.73189555,0.0001167,53.2137,100.777,92.084,16.1765,-8.4496e-05,-0.00012455,0.0,0 STARLINK-4694,1 53708U 22107J   22282.91667824 -.00012455  00000-0 -84496-4 0  9998,2 53708  53.2137 100.7770 0001167  92.0840  16.1765 15.73189555  1305,6727.925,91.534,350.575,349.005,0.0
53708.0,STARLINK-4694,PAYLOAD,2022-10-10 14:00:01,15.73246444,0.0001053,53.2152,97.4766,99.0375,187.0758,-0.00039223,-0.00055413,0.0,0 STARLINK-4694,1 53708U 22107J   22283.58334491 -.00055413  00000-0 -39223-3 0  9991,2 53708  53.2152  97.4766 0001053  99.0375 187.0758 15.73246444  5702,6727.763000000001,91.53,350.336,348.9190000000001,0.0
53708.0,STARLINK-4694,PAYLOAD,2022-10-10 22:00:01,15.73288815,0.0001058,53.2163,95.8294,92.7436,282.392,-0.0036119999999999,-0.00481384,0.0,0 STARLINK-4694,1 53708U 22107J   22283.91668981 -.00481384  00000-0 -36120-2 0  9994,2 53708  53.2163  95.8294 0001058  92.7436 282.3920 15.73288815  5769,6727.642,91.528,350.219,348.795,0.0
53708.0,STARLINK-4694,PAYLOAD,2022-10-11 06:00:00,15.73143306,9.23e-05,53.2157,94.1769,93.6096,10.3119,-0.00021518,-0.00030634,0.0,0 STARLINK-4694,1 53708U 22107J   22284.25001157 -.00030634  00000-0 -21518-3 0  9992,2 53708  53.2157  94.1769 0000923  93.6096  10.3119 15.73143306  5813,6728.057,91.536,350.543,349.301,0.0
53708.0,STARLINK-4694,PAYLOAD,2022-10-11 14:00:01,15.73187485,0.0001621999999999,53.2173,92.5287,93.2429,99.458,0.00022178,0.00030602,0.0,0 STARLINK-4694,1 53708U 22107J   22284.58334491  .00030602  00000-0  22178-3 0  9994,2 53708  53.2173  92.5287 0001622  93.2429  99.4580 15.73187485  1307,6727.931,91.534,350.88699999999994,348.705,0.0
53708.0,STARLINK-4694,PAYLOAD,2022-10-11 22:00:00,15.73139967,0.000139,53.2155,90.8797,74.3122,207.3519,0.0010012,0.00141924,0.0,0 STARLINK-4694,1 53708U 22107J   22284.91667824  .00141924  00000-0  10012-2 0  9993,2 53708  53.2155  90.8797 0001390  74.3122 207.3519 15.73139967  5911,6728.066,91.537,350.867,348.996,0.0
53708.0,STARLINK-4694,PAYLOAD,2022-10-12 06:00:00,15.73143966,0.0001016,53.2161,89.2285,81.3149,289.1943,0.00078491,0.00110732,0.0,0 STARLINK-4694,1 53708U 22107J   22285.25001157  .00110732  00000-0  78491-3 0  9991,2 53708  53.2161  89.2285 0001016  81.3149 289.1943 15.73143966  5973,6728.055,91.536,350.60400000000016,349.236,0.0
53708.0,STARLINK-4694,PAYLOAD,2022-10-12 14:00:01,15.73256624,0.0001069,53.2167,87.5797,81.4281,17.9778,7.1277e-05,9.418e-05,0.0,0 STARLINK-4694,1 53708U 22107J   22285.58334491  .00009418  00000-0  71277-4 0  9991,2 53708  53.2167  87.5797 0001069  81.4281  17.9778 15.73256624  1306,6727.734,91.53,350.3180000000001,348.88,0.0
53708.0,STARLINK-4694,PAYLOAD,2022-10-12 22:00:00,15.73229416,0.0001059,53.217,85.9326,70.7445,117.6737,-0.0002761,-0.00039236,0.0,0 STARLINK-4694,1 53708U 22107J   22285.91667824 -.00039236  00000-0 -27610-3 0  9991,2 53708  53.2170  85.9326 0001059  70.7445 117.6737 15.73229416  1304,6727.811,91.531,350.389,348.964,0.0
53708.0,STARLINK-4694,PAYLOAD,2022-10-13 14:00:01,15.73207922,0.000165,53.2173,82.6319,83.7252,282.5727,-3.561e-05,-5.617e-05,0.0,0 STARLINK-4694,1 53708U 22107J   22286.58334491 -.00005617  00000-0 -35610-4 0  9992,2 53708  53.2173  82.6319 0001650  83.7252 282.5727 15.73207922  1309,6727.873000000001,91.533,350.848,348.62699999999984,0.0
53708.0,STARLINK-4694,PAYLOAD,2022-10-13 20:00:01,15.73138222,0.0001443999999999,53.2172,81.396,70.1003,273.0073,0.00063467,0.00089165,0.0,0 STARLINK-4694,1 53708U 22107J   22286.83335648  .00089165  00000-0  63467-3 0  9993,2 53708  53.2172  81.3960 0001444  70.1003 273.0073 15.73138222  6222,6728.071,91.537,350.908,348.965,0.0
53708.0,STARLINK-4694,PAYLOAD,2022-10-13 22:00:00,15.73154391,0.0001409999999999,53.217,80.9836,68.6967,26.5619,0.00056757,0.00079637,0.0,0 STARLINK-4694,1 53708U 22107J   22286.91667824  .00079637  00000-0  56757-3 0  9993,2 53708  53.2170  80.9836 0001410  68.6967  26.5619 15.73154391  1307,6728.025,91.536,350.839,348.94199999999995,0.0
53708.0,STARLINK-4694,PAYLOAD,2022-10-14 14:00:01,15.7320001,0.0001013,53.2174,77.6834,64.9545,208.1497,6.1396e-05,8.005e-05,0.0,0 STARLINK-4694,1 53708U 22107J   22287.58334491  .00008005  00000-0  61396-4 0  9995,2 53708  53.2174  77.6834 0001013  64.9545 208.1497 15.73200010  1304,6727.895,91.533,350.44199999999995,349.079,0.0
53708.0,STARLINK-4694,PAYLOAD,2022-10-14 16:00:00,15.73205654,0.0001026,53.2174,77.2718,59.1607,326.1747,-1.4748e-05,-2.689e-05,0.0,0 STARLINK-4694,1 53708U 22107J   22287.66667824 -.00002689  00000-0 -14748-4 0  9996,2 53708  53.2174  77.2718 0001026  59.1607 326.1747 15.73205654  6358,6727.879,91.533,350.434,349.05400000000014,0.0
53708.0,STARLINK-4694,PAYLOAD,2022-10-14 22:00:00,15.73203786,9.95e-05,53.2171,76.0352,55.8584,306.178,1.5987e-05,1.625e-05,0.0,0 STARLINK-4694,1 53708U 22107J   22287.91667824  .00001625  00000-0  15987-4 0  9997,2 53708  53.2171  76.0352 0000995  55.8584 306.1780 15.73203786  1306,6727.884,91.533,350.4190000000001,349.08,0.0
53708.0,STARLINK-4694,PAYLOAD,2022-10-15 14:00:01,15.73299474,0.000138,53.2158,72.7342,46.8189,133.2409,-0.00059637,-0.00083843,0.0,0 STARLINK-4694,1 53708U 22107J   22288.58334491 -.00083843  00000-0 -59637-3 0  9995,2 53708  53.2158  72.7342 0001380  46.8189 133.2409 15.73299474  1309,6727.611999999999,91.527,350.405,348.548,0.0
